[
  {
    "name": "Abuelo's Mexican Restaurant",
    "street": "24600 Katy Fwy #1020",
    "city": "Katy",
    "state": "TX",
    "zip": "77493",
    "url": "http://www.abuelos.com/locations/katy-tx/"
  },
  {
    "name": "Los Cucos Mexican Restaurant",
    "street": "5305 Bell Patna Dr",
    "city": "Katy",
    "state": "TX",
    "zip": "77494",
    "url": "http://www.loscucos.com/"
  },
  {
    "name": "Alicia's Mexican Grille",
    "street": "25725 Katy Fwy",
    "city": "Katy",
    "state": "TX",
    "zip": "77494",
    "url": "http://aliciasmexicangrille.com/"
  },
  {
    "name": "Cafe Del Sol Mexican Restaurant",
    "street": "23945 Franz Rd",
    "city": "Katy",
    "state": "TX",
    "zip": "77493",
    "url": "http://www.restaurantkaty.com/"
  },
  {
    "name": "Los Cucos Mexican Restaurant",
    "street": "5831 Hwy Blvd",
    "city": "Katy",
    "state": "TX",
    "zip": "77494",
    "url": "http://www.loscucos.com/"
  },
  {
    "name": "Tacos Y Tortas Adrian",
    "street": "1997 Katy Mills Blvd suite 300",
    "city": "Katy",
    "state": "TX",
    "zip": "77494",
    "url": "http://www.tacosadrian.com/"
  },
  {
    "name": "Taqueria Tex-Taco",
    "street": "2864 Katy Hockley Cut Off Rd",
    "city": "Katy",
    "state": "TX",
    "zip": "77493",
    "url": ""
  },
  {
    "name": "Ray's Mexican Restaurant",
    "street": "870 S Mason Rd #152",
    "city": "Katy",
    "state": "TX",
    "zip": "77450",
    "url": "http://www.raysmexicanrestaurant.com/"
  },
  {
    "name": "Lupe Tortilla",
    "street": "703 West Grand Parkway South,",
    "city": "Katy",
    "state": "TX",
    "zip": "77494",
    "url": "https://www.tex-mex.com/"
  },
  {
    "name": "Ruthie's Mexicana",
    "street": "1315 West Grand Parkway South #101",
    "city": "Katy",
    "state": "TX",
    "zip": "77494",
    "url": ""
  },
  {
    "name": "Uncle Julio's Mexican From Scratch",
    "street": "20526 Katy Fwy",
    "city": "Katy",
    "state": "TX",
    "zip": "77450",
    "url": "https://www.unclejulios.com/locations/katy/"
  }
]
